COMMENT,ORIGINATOR,NORAD_CAT_ID,OBJECT_NAME,OBJECT_TYPE,CLASSIFICATION_TYPE,INTLDES,EPOCH,EPOCH_MICROSECONDS,MEAN_MOTION,ECCENTRICITY,INCLINATION,RA_OF_ASC_NODE,ARG_OF_PERICENTER,MEAN_ANOMALY,EPHEMERIS_TYPE,ELEMENT_SET_NO,REV_AT_EPOCH,BSTAR,MEAN_MOTION_DOT,MEAN_MOTION_DDOT,FILE,TLE_LINE0,TLE_LINE1,TLE_LINE2,OBJECT_ID,OBJECT_NUMBER,SEMIMAJOR_AXIS,PERIOD,APOGEE,PERIGEE,DECAYED
"GENERATED VIA SPACETRACK.ORG API","18 SPCS","55091","SPACEBEE-164","PAYLOAD","U","23001CL","2023-03-03 09:38:32","838144","15.15574505","0.0015888","97.4926","123.6636","15.6455","344.5266","0","999","905","0.0012983","0.00024711","0","3850163","0 SPACEBEE-164","1 55091U 23001CL  23062.40176896  .00024711  00000-0  12983-2 0  9990","2 55091  97.4926 123.6636 0015888  15.6455 344.5266 15.15574505  9054","2023-001CL","55091","6897.372","95.013","530.196","508.278","0"
"GENERATED VIA SPACETRACK.ORG API","18 SPCS","55091","SPACEBEE-164","PAYLOAD","U","23001CL","2023-03-04 09:24:37","654272","15.15629587","0.0015849","97.4921","124.6399","11.9515","348.209","0","999","920","0.0015551","0.00029677","0","3851072","0 SPACEBEE-164","1 55091U 23001CL  23063.39210248  .00029677  00000-0  15551-2 0  9999","2 55091  97.4921 124.6399 0015849  11.9515 348.2090 15.15629587  9203","2023-001CL","55091","6897.205","95.010","530.001","508.138","0"
"GENERATED VIA SPACETRACK.ORG API","18 SPCS","55091","SPACEBEE-164","PAYLOAD","U","23001CL","2023-03-04 17:19:58","584576","15.15644491","0.0015818","97.4923","124.9658","10.7136","349.443","0","999","925","0.0013024","0.00024838","0","3851346","0 SPACEBEE-164","1 55091U 23001CL  23063.72220584  .00024838  00000-0  13024-2 0  9997","2 55091  97.4923 124.9658 0015818  10.7136 349.4430 15.15644491  9255","2023-001CL","55091","6897.160","95.009","529.935","508.115","0"
"GENERATED VIA SPACETRACK.ORG API","18 SPCS","55091","SPACEBEE-164","PAYLOAD","U","23001CL","2023-03-04 17:19:58","584576","15.15644491","0.0015818","97.4923","124.9658","10.7136","349.443","0","999","925","0.0013024","0.00024838","0","3851350","0 SPACEBEE-164","1 55091U 23001CL  23063.72220584  .00024838  00000-0  13024-2 0  9997","2 55091  97.4923 124.9658 0015818  10.7136 349.4430 15.15644491  9255","2023-001CL","55091","6897.160","95.009","529.935","508.115","0"
"GENERATED VIA SPACETRACK.ORG API","18 SPCS","55091","SPACEBEE-164","PAYLOAD","U","23001CL","2023-03-04 23:40:15","113856","15.1565745","0.0015807","97.4926","125.2268","9.8199","350.3339","0","999","929","0.0013255","0.0002529","0","3851939","0 SPACEBEE-164","1 55091U 23001CL  23063.98628604  .00025290  00000-0  13255-2 0  9999","2 55091  97.4926 125.2268 0015807   9.8199 350.3339 15.15657450  9297","2023-001CL","55091","6897.120","95.008","529.888","508.083","0"
"GENERATED VIA SPACETRACK.ORG API","18 SPCS","55091","SPACEBEE-164","PAYLOAD","U","23001CL","2023-03-05 21:51:11","106144","15.15713235","0.0015632","97.4923","126.1386","6.7896","353.3546","0","999","943","0.0015791","0.00030207","0","3852246","0 SPACEBEE-164","1 55091U 23001CL  23064.91054521  .00030207  00000-0  15791-2 0  9995","2 55091  97.4923 126.1386 0015632   6.7896 353.3546 15.15713235  9434","2023-001CL","55091","6896.951","95.005","529.597","508.035","0"
"GENERATED VIA SPACETRACK.ORG API","18 SPCS","55091","SPACEBEE-164","PAYLOAD","U","23001CL","2023-03-05 21:51:11","106144","15.15713235","0.0015632","97.4923","126.1386","6.7896","353.3546","0","999","943","0.0015791","0.00030207","0","3852256","0 SPACEBEE-164","1 55091U 23001CL  23064.91054521  .00030207  00000-0  15791-2 0  9995","2 55091  97.4923 126.1386 0015632   6.7896 353.3546 15.15713235  9434","2023-001CL","55091","6896.951","95.005","529.597","508.035","0"
"GENERATED VIA SPACETRACK.ORG API","18 SPCS","55091","SPACEBEE-164","PAYLOAD","U","23001CL","2023-03-06 21:37:07","892256","15.15771486","0.0015536","97.4919","127.1154","3.7386","356.396","0","999","958","0.001522","0.00029155","0","3853141","0 SPACEBEE-164","1 55091U 23001CL  23065.90078579  .00029155  00000-0  15220-2 0  9991","2 55091  97.4919 127.1154 0015536   3.7386 356.3960 15.15771486  9588","2023-001CL","55091","6896.774","95.001","529.354","507.925","0"
"GENERATED VIA SPACETRACK.ORG API","18 SPCS","55091","SPACEBEE-164","PAYLOAD","U","23001CL","2023-03-07 03:57:22","498272","15.15787701","0.0015542","97.4917","127.3761","2.8732","357.2587","0","999","962","0.0015478","0.00029667","0","3853534","0 SPACEBEE-164","1 55091U 23001CL  23066.16484373  .00029667  00000-0  15478-2 0  9996","2 55091  97.4917 127.3761 0015542   2.8732 357.2587 15.15787701  9621","2023-001CL","55091","6896.725","95.000","529.309","507.871","0"
"GENERATED VIA SPACETRACK.ORG API","18 SPCS","55091","SPACEBEE-164","PAYLOAD","U","23001CL","2023-03-07 15:02:47","425920","15.15817087","0.0015427","97.4916","127.8316","1.2553","358.8716","0","999","969","0.0015978","0.00030655","0","3854072","0 SPACEBEE-164","1 55091U 23001CL  23066.62693780  .00030655  00000-0  15978-2 0  9995","2 55091  97.4916 127.8316 0015427   1.2553 358.8716 15.15817087  9696","2023-001CL","55091","6896.636","94.998","529.141","507.862","0"
"GENERATED VIA SPACETRACK.ORG API","18 SPCS","55091","SPACEBEE-164","PAYLOAD","U","23001CL","2023-03-08 03:43:15","139776","15.15844935","0.0015408","97.4913","128.353","359.2911","0.8297","0","999","977","0.0015879","0.00030488","0","3855077","0 SPACEBEE-164","1 55091U 23001CL  23067.15503634  .00030488  00000-0  15879-2 0  9996","2 55091  97.4913 128.3530 0015408 359.2911   0.8297 15.15844935  9779","2023-001CL","55091","6896.552","94.997","529.043","507.790","0"
"GENERATED VIA SPACETRACK.ORG API","18 SPCS","55091","SPACEBEE-164","PAYLOAD","U","23001CL","2023-03-08 22:43:55","49952","15.15896452","0.0015306","97.4908","129.1346","356.133","3.9782","0","999","989","0.002348","0.00045269","0","3855093","0 SPACEBEE-164","1 55091U 23001CL  23067.94716493  .00045269  00000-0  23480-2 0  9992","2 55091  97.4908 129.1346 0015306 356.1330   3.9782 15.15896452  9892","2023-001CL","55091","6896.395","94.993","528.816","507.705","0"
"GENERATED VIA SPACETRACK.ORG API","18 SPCS","55091","SPACEBEE-164","PAYLOAD","U","23001CL","2023-03-09 14:34:26","514912","15.15933483","0.0015221","97.4902","129.7857","353.6528","6.451","0","999","999","0.0017808","0.00034301","0","3855951","0 SPACEBEE-164","1 55091U 23001CL  23068.60725133  .00034301  00000-0  17808-2 0  9999","2 55091  97.4902 129.7857 0015221 353.6528   6.4510 15.15933483  9990","2023-001CL","55091","6896.283","94.991","528.645","507.651","0"
"GENERATED VIA SPACETRACK.ORG API","18 SPCS","55091","SPACEBEE-164","PAYLOAD","U","23001CL","2023-03-10 14:20:10","914720","15.15991154","0.0015146","97.4897","130.7625","349.837","10.2554","0","999","1014","0.0013758","0.000265","0","3856955","0 SPACEBEE-164","1 55091U 23001CL  23069.59734855  .00026500  00000-0  13758-2 0  9991","2 55091  97.4897 130.7625 0015146 349.8370  10.2554 15.15991154 10145","2023-001CL","55091","6896.108","94.987","528.418","507.528","0"
"GENERATED VIA SPACETRACK.ORG API","18 SPCS","55091","SPACEBEE-164","PAYLOAD","U","23001CL","2023-03-10 14:20:10","914720","15.15991154","0.0015146","97.4897","130.7625","349.837","10.2554","0","999","1014","0.0013758","0.000265","0","3856975","0 SPACEBEE-164","1 55091U 23001CL  23069.59734855  .00026500  00000-0  13758-2 0  9991","2 55091  97.4897 130.7625 0015146 349.8370  10.2554 15.15991154 10145","2023-001CL","55091","6896.108","94.987","528.418","507.528","0"
"GENERATED VIA SPACETRACK.ORG API","18 SPCS","55091","SPACEBEE-164","PAYLOAD","U","23001CL","2023-03-11 03:00:33","260544","15.16022482","0.0015139","97.4896","131.2837","347.95","12.1368","0","999","1022","0.0014757","0.00028462","0","3857581","0 SPACEBEE-164","1 55091U 23001CL  23070.12538496  .00028462  00000-0  14757-2 0  9994","2 55091  97.4896 131.2837 0015139 347.9500  12.1368 15.16022482 10224","2023-001CL","55091","6896.013","94.985","528.318","507.438","0"
"GENERATED VIA SPACETRACK.ORG API","18 SPCS","55091","SPACEBEE-164","PAYLOAD","U","23001CL","2023-03-11 15:40:54","669792","15.16050962","0.001509","97.4897","131.8046","345.8503","14.2305","0","999","1030","0.0012889","0.00024858","0","3857847","0 SPACEBEE-164","1 55091U 23001CL  23070.65341053  .00024858  00000-0  12889-2 0  9992","2 55091  97.4897 131.8046 0015090 345.8503  14.2305 15.16050962 10306","2023-001CL","55091","6895.927","94.984","528.198","507.386","0"
"GENERATED VIA SPACETRACK.ORG API","18 SPCS","55091","SPACEBEE-164","PAYLOAD","U","23001CL","2023-03-12 02:46:12","778752","15.16073749","0.0015096","97.4897","132.2608","344.2251","15.8509","0","999","1037","0.0012535","0.00024187","0","3858230","0 SPACEBEE-164","1 55091U 23001CL  23071.11542568  .00024187  00000-0  12535-2 0  9991","2 55091  97.4897 132.2608 0015096 344.2251  15.8509 15.16073749 10372","2023-001CL","55091","6895.858","94.982","528.133","507.313","0"
"GENERATED VIA SPACETRACK.ORG API","18 SPCS","55091","SPACEBEE-164","PAYLOAD","U","23001CL","2023-03-12 02:46:12","778752","15.16073749","0.0015096","97.4897","132.2608","344.2251","15.8509","0","999","1037","0.0012535","0.00024187","0","3858534","0 SPACEBEE-164","1 55091U 23001CL  23071.11542568  .00024187  00000-0  12535-2 0  9991","2 55091  97.4897 132.2608 0015096 344.2251  15.8509 15.16073749 10372","2023-001CL","55091","6895.858","94.982","528.133","507.313","0"
"GENERATED VIA SPACETRACK.ORG API","18 SPCS","55091","SPACEBEE-164","PAYLOAD","U","23001CL","2023-03-13 02:31:49","415520","15.16125444","0.0015002","97.4897","133.2377","340.7988","19.2677","0","999","1052","0.0012706","0.00024554","0","3859425","0 SPACEBEE-164","1 55091U 23001CL  23072.10543305  .00024554  00000-0  12706-2 0  9999","2 55091  97.4897 133.2377 0015002 340.7988  19.2677 15.16125444 10522","2023-001CL","55091","6895.701","94.979","527.911","507.221","0"
